{
    "links": {
      "next": "https://api.nasa.gov/neo/rest/v1/feed?start_date=2017-01-08&end_date=2017-01-08&detailed=true&api_key=N7LkblDsc5aen05FJqBQ8wU4qSdmsftwJagVK7UD",
      "prev": "https://api.nasa.gov/neo/rest/v1/feed?start_date=2017-01-06&end_date=2017-01-06&detailed=true&api_key=N7LkblDsc5aen05FJqBQ8wU4qSdmsftwJagVK7UD",
      "self": "https://api.nasa.gov/neo/rest/v1/feed?start_date=2017-01-07&end_date=2017-01-07&detailed=true&api_key=N7LkblDsc5aen05FJqBQ8wU4qSdmsftwJagVK7UD"
    },
    "element_count": 7,
    "near_earth_objects": {
      "2017-01-07": [
        {
          "links": {
            "self": "https://api.nasa.gov/neo/rest/v1/neo/2085990?api_key=N7LkblDsc5aen05FJqBQ8wU4qSdmsftwJagVK7UD"
          },
          "neo_reference_id": "2085990",
          "name": "85990 (1999 JV6)",
          "nasa_jpl_url": "http://ssd.jpl.nasa.gov/sbdb.cgi?sstr=2085990",
          "absolute_magnitude_h": 20.2,
          "estimated_diameter": {
            "kilometers": {
              "estimated_diameter_min": 0.2424124811,
              "estimated_diameter_max": 0.5420507863
            },
            "meters": {
              "estimated_diameter_min": 242.4124811008,
              "estimated_diameter_max": 542.0507863358
            },
            "miles": {
              "estimated_diameter_min": 0.1506280858,
              "estimated_diameter_max": 0.3368146392
            },
            "feet": {
              "estimated_diameter_min": 795.3165644948,
              "estimated_diameter_max": 1778.3819018419
            }
          },
          "is_potentially_hazardous_asteroid": true,
          "close_approach_data": [
            {
              "close_approach_date": "2017-01-07",
              "epoch_date_close_approach": 1483776000000,
              "relative_velocity": {
                "kilometers_per_second": "11.6709051822",
                "kilometers_per_hour": "42015.2586558487",
                "miles_per_hour": "26106.6478020189"
              },
              "miss_distance": {
                "astronomical": "0.0690566292",
                "lunar": "26.86302948",
                "kilometers": "10330725",
                "miles": "6419215"
              },
              "orbiting_body": "Earth"
            }
          ],
          "orbital_data": {
            "orbit_id": "229",
            "orbit_determination_date": "2017-04-06 09:28:32",
            "orbit_uncertainty": "0",
            "minimum_orbit_intersection": ".0311616",
            "jupiter_tisserand_invariant": "5.995",
            "epoch_osculation": "2456067.5",
            "eccentricity": ".3113896916773102",
            "semi_major_axis": "1.008096929579188",
            "inclination": "5.319084389582808",
            "ascending_node_longitude": "124.5513617783884",
            "orbital_period": "369.7020551984641",
            "perihelion_distance": ".6941859374966813",
            "perihelion_argument": "235.3374957840193",
            "aphelion_distance": "1.322007921661694",
            "perihelion_time": "2456213.986984696820",
            "mean_anomaly": "217.357259043243",
            "mean_motion": ".9737570969324046",
            "equinox": "J2000"
          }
        },
        {
          "links": {
            "self": "https://api.nasa.gov/neo/rest/v1/neo/2138175?api_key=N7LkblDsc5aen05FJqBQ8wU4qSdmsftwJagVK7UD"
          },
          "neo_reference_id": "2138175",
          "name": "138175 (2000 EE104)",
          "nasa_jpl_url": "http://ssd.jpl.nasa.gov/sbdb.cgi?sstr=2138175",
          "absolute_magnitude_h": 20.3,
          "estimated_diameter": {
            "kilometers": {
              "estimated_diameter_min": 0.2315021222,
              "estimated_diameter_max": 0.5176544822
            },
            "meters": {
              "estimated_diameter_min": 231.5021222103,
              "estimated_diameter_max": 517.6544821978
            },
            "miles": {
              "estimated_diameter_min": 0.1438487052,
              "estimated_diameter_max": 0.3216554833
            },
            "feet": {
              "estimated_diameter_min": 759.5214226325,
              "estimated_diameter_max": 1698.3415313737
            }
          },
          "is_potentially_hazardous_asteroid": true,
          "close_approach_data": [
            {
              "close_approach_date": "2017-01-07",
              "epoch_date_close_approach": 1483776000000,
              "relative_velocity": {
                "kilometers_per_second": "7.9792091666",
                "kilometers_per_hour": "28725.1529996354",
                "miles_per_hour": "17848.6929846901"
              },
              "miss_distance": {
                "astronomical": "0.3150677984",
                "lunar": "122.5613708496",
                "kilometers": "47133472",
                "miles": "29287382"
              },
              "orbiting_body": "Earth"
            }
          ],
          "orbital_data": {
            "orbit_id": "157",
            "orbit_determination_date": "2017-04-06 09:27:49",
            "orbit_uncertainty": "0",
            "minimum_orbit_intersection": ".00862379",
            "jupiter_tisserand_invariant": "6.015",
            "epoch_osculation": "2456013.5",
            "eccentricity": ".293365193266127",
            "semi_major_axis": "1.004809248733997",
            "inclination": "5.24210754091877",
            "ascending_node_longitude": "25.90801698237798",
            "orbital_period": "367.8949806981167",
            "perihelion_distance": ".7100331892835565",
            "perihelion_argument": "280.8672912659017",
            "aphelion_distance": "1.299585308184438",
            "perihelion_time": "2456135.228653495445",
            "mean_anomaly": "240.8836283245749",
            "mean_motion": ".9785401239148868",
            "equinox": "J2000"
          }
        },
        {
          "links": {
            "self": "https://api.nasa.gov/neo/rest/v1/neo/2307070?api_key=N7LkblDsc5aen05FJqBQ8wU4qSdmsftwJagVK7UD"
          },
          "neo_reference_id": "2307070",
          "name": "307070 (2002 AV31)",
          "nasa_jpl_url": "http://ssd.jpl.nasa.gov/sbdb.cgi?sstr=2307070",
          "absolute_magnitude_h": 20.7,
          "estimated_diameter": {
            "kilometers": {
              "estimated_diameter_min": 0.1925550782,
              "estimated_diameter_max": 0.4305662442
            },
            "meters": {
              "estimated_diameter_min": 192.5550781879,
              "estimated_diameter_max": 430.566244241
            },
            "miles": {
              "estimated_diameter_min": 0.1196481415,
              "estimated_diameter_max": 0.2675413778
            },
            "feet": {
              "estimated_diameter_min": 631.7424027221,
              "estimated_diameter_max": 1412.6189567557
            }
          },
          "is_potentially_hazardous_asteroid": false,
          "close_approach_data": [
            {
              "close_approach_date": "2017-01-07",
              "epoch_date_close_approach": 1483776000000,
              "relative_velocity": {
                "kilometers_per_second": "8.3043105128",
                "kilometers_per_hour": "29895.5178461146",
                "miles_per_hour": "18575.9121861038"
              },
              "miss_distance": {
                "astronomical": "0.2753117669",
                "lunar": "107.0962753296",
                "kilometers": "41186056",
                "miles": "25591828"
              },
              "orbiting_body": "Earth"
            }
          ],
          "orbital_data": {
            "orbit_id": "75",
            "orbit_determination_date": "2017-04-06 09:23:59",
            "orbit_uncertainty": "0",
            "minimum_orbit_intersection": ".143015",
            "jupiter_tisserand_invariant": "4.911",
            "epoch_osculation": "2458000.5",
            "eccentricity": ".249441069304206",
            "semi_major_axis": "1.310034736062646",
            "inclination": "14.97551130247512",
            "ascending_node_longitude": "119.3113637536016",
            "orbital_period": "547.6746555831121",
            "perihelion_distance": ".9832582706735261",
            "perihelion_argument": "267.3785244832686",
            "aphelion_distance": "1.636811201451766",
            "perihelion_time": "2458217.784534408203",
            "mean_anomaly": "217.173539820518",
            "mean_motion": ".6573245563403077",
            "equinox": "J2000"
          }
        }
      ]
    }
  }